CCSDS_OMM_VERS = 2.0
CREATION_DATE  = 
ORIGINATOR     = 

OBJECT_NAME    = CZ-2C R/B
OBJECT_ID      = 2022-132E
CENTER_NAME    = EARTH
REF_FRAME      = TEME
TIME_SYSTEM    = UTC
MEAN_ELEMENT_THEORY = SGP/SGP4

EPOCH          = 2025-12-24T21:30:32.671872
MEAN_MOTION    = 15.55550091
ECCENTRICITY   = .00211343
INCLINATION    = 97.2945
RA_OF_ASC_NODE = 355.3331
ARG_OF_PERICENTER = 15.5852
MEAN_ANOMALY   = 344.6048

EPHEMERIS_TYPE = 0
CLASSIFICATION_TYPE = U
NORAD_CAT_ID   = 54039
ELEMENT_SET_NO = 999
REV_AT_EPOCH   = 17872
BSTAR          = .50113387E-3
MEAN_MOTION_DOT = .34612E-3
MEAN_MOTION_DDOT = 0

CCSDS_OMM_VERS = 2.0
CREATION_DATE  = 
ORIGINATOR     = 

OBJECT_NAME    = GSLV R/B
OBJECT_ID      = 2022-138AN
CENTER_NAME    = EARTH
REF_FRAME      = TEME
TIME_SYSTEM    = UTC
MEAN_ELEMENT_THEORY = SGP/SGP4

EPOCH          = 2025-12-24T19:52:02.433216
MEAN_MOTION    = 14.96189152
ECCENTRICITY   = .00240445
INCLINATION    = 87.3822
RA_OF_ASC_NODE = 191.4251
ARG_OF_PERICENTER = 66.0095
MEAN_ANOMALY   = 294.3649

EPHEMERIS_TYPE = 0
CLASSIFICATION_TYPE = U
NORAD_CAT_ID   = 54149
ELEMENT_SET_NO = 999
REV_AT_EPOCH   = 17273
BSTAR          = .24870606E-3
MEAN_MOTION_DOT = .2846E-4
MEAN_MOTION_DDOT = 0

CCSDS_OMM_VERS = 2.0
CREATION_DATE  = 
ORIGINATOR     = 

OBJECT_NAME    = XRISM
OBJECT_ID      = 2023-137A
CENTER_NAME    = EARTH
REF_FRAME      = TEME
TIME_SYSTEM    = UTC
MEAN_ELEMENT_THEORY = SGP/SGP4

EPOCH          = 2025-12-24T12:45:11.077344
MEAN_MOTION    = 15.10453716
ECCENTRICITY   = .0007627
INCLINATION    = 31.0030
RA_OF_ASC_NODE = 49.4069
ARG_OF_PERICENTER = 3.7982
MEAN_ANOMALY   = 356.2713

EPHEMERIS_TYPE = 0
CLASSIFICATION_TYPE = U
NORAD_CAT_ID   = 57800
ELEMENT_SET_NO = 999
REV_AT_EPOCH   = 12641
BSTAR          = .37849943E-3
MEAN_MOTION_DOT = .6481E-4
MEAN_MOTION_DDOT = 0

CCSDS_OMM_VERS = 2.0
CREATION_DATE  = 
ORIGINATOR     = 

OBJECT_NAME    = ACS3
OBJECT_ID      = 2024-077B
CENTER_NAME    = EARTH
REF_FRAME      = TEME
TIME_SYSTEM    = UTC
MEAN_ELEMENT_THEORY = SGP/SGP4

EPOCH          = 2025-12-24T21:13:00.452928
MEAN_MOTION    = 13.86037290
ECCENTRICITY   = .00746226
INCLINATION    = 97.2601
RA_OF_ASC_NODE = 311.7768
ARG_OF_PERICENTER = 308.3116
MEAN_ANOMALY   = 51.1351

EPHEMERIS_TYPE = 0
CLASSIFICATION_TYPE = U
NORAD_CAT_ID   = 59588
ELEMENT_SET_NO = 999
REV_AT_EPOCH   = 8382
BSTAR          = .22149474E-1
MEAN_MOTION_DOT = .2611E-3
MEAN_MOTION_DDOT = 0

CCSDS_OMM_VERS = 2.0
CREATION_DATE  = 
ORIGINATOR     = 

OBJECT_NAME    = SZ-21 MODULE
OBJECT_ID      = 2025-246C
CENTER_NAME    = EARTH
REF_FRAME      = TEME
TIME_SYSTEM    = UTC
MEAN_ELEMENT_THEORY = SGP/SGP4

EPOCH          = 2025-12-24T13:16:51.562848
MEAN_MOTION    = 15.63097156
ECCENTRICITY   = .00047243
INCLINATION    = 41.4769
RA_OF_ASC_NODE = 303.9494
ARG_OF_PERICENTER = 323.7646
MEAN_ANOMALY   = 36.2873

EPHEMERIS_TYPE = 0
CLASSIFICATION_TYPE = U
NORAD_CAT_ID   = 66515
ELEMENT_SET_NO = 999
REV_AT_EPOCH   = 629
BSTAR          = .31177301E-3
MEAN_MOTION_DOT = .2901E-3
MEAN_MOTION_DDOT = 0

